NORAD_CAT_ID,OBJECT_NAME,OBJECT_TYPE,EPOCH,MEAN_MOTION,ECCENTRICITY,INCLINATION,RA_OF_ASC_NODE,ARG_OF_PERICENTER,MEAN_ANOMALY,BSTAR,MEAN_MOTION_DOT,MEAN_MOTION_DDOT,TLE_LINE0,TLE_LINE1,TLE_LINE2,SEMIMAJOR_AXIS,PERIOD,APOGEE,PERIGEE,DECAYED
53984.0,STARLINK-5142,PAYLOAD,2023-02-12 19:07:39,15.08842626,0.000124,53.215,206.1577,92.9717,267.1417,7.5973e-05,9.22e-06,0.0,0 STARLINK-5142,1 53984U 22125W   23043.79698977  .00000922  00000-0  75973-4 0  9993,2 53984  53.2150 206.1577 0001240  92.9717 267.1417 15.08842626 20313,6917.872,95.437,540.595,538.88,0.0
53984.0,STARLINK-5142,PAYLOAD,2023-02-13 11:01:31,15.08834401,0.0001083,53.2149,203.1822,97.7574,262.3541,5.4776e-05,5.84e-06,0.0,0 STARLINK-5142,1 53984U 22125W   23044.45939651  .00000584  00000-0  54776-4 0  9996,2 53984  53.2149 203.1822 0001083  97.7574 262.3541 15.08834401 20418,6917.898,95.438,540.512,539.013,0.0
53984.0,STARLINK-5142,PAYLOAD,2023-02-13 17:23:03,15.088446,0.0001158,53.2151,201.9946,94.9052,265.2073,0.00014597,2.036e-05,0.0,0 STARLINK-5142,1 53984U 22125W   23044.72435011  .00002036  00000-0  14597-3 0  9997,2 53984  53.2151 201.9946 0001158  94.9052 265.2073 15.08844600 20455,6917.866,95.437,540.532,538.93,0.0
53984.0,STARLINK-5142,PAYLOAD,2023-02-14 09:16:55,15.08836188,0.0001403,53.2155,199.0215,103.1652,256.9497,0.00013253,1.822e-05,0.0,0 STARLINK-5142,1 53984U 22125W   23045.38675689  .00001822  00000-0  13253-3 0  9997,2 53984  53.2155 199.0215 0001403 103.1652 256.9497 15.08836188 20557,6917.892,95.438,540.728,538.786,0.0
53984.0,STARLINK-5142,PAYLOAD,2023-02-14 18:49:14,15.08842979,0.000148,53.218,197.2374,104.3719,255.7437,0.00011037,1.469e-05,0.0,0 STARLINK-5142,1 53984U 22125W   23045.78419273  .00001469  00000-0  11037-3 0  9991,2 53984  53.2180 197.2374 0001480 104.3719 255.7437 15.08842979 20548,6917.871,95.437,540.76,538.712,0.0
53984.0,STARLINK-5142,PAYLOAD,2023-02-15 12:18:28,15.08841712,9.04e-05,53.2152,193.9659,100.1477,259.9617,4.9001e-05,4.92e-06,0.0,0 STARLINK-5142,1 53984U 22125W   23046.51283527  .00000492  00000-0  49001-4 0  9992,2 53984  53.2152 193.9659 0000904 100.1477 259.9617 15.08841712 20653,6917.875,95.437,540.366,539.115,0.0
53984.0,STARLINK-5142,PAYLOAD,2023-02-15 20:15:22,15.08861471,8.34e-05,53.2157,192.4783,145.5375,214.5671,0.00021608,3.155e-05,0.0,0 STARLINK-5142,1 53984U 22125W   23046.84401497  .00003155  00000-0  21608-3 0  9997,2 53984  53.2157 192.4783 0000834 145.5375 214.5671 15.08861471 20709,6917.815,95.436,540.257,539.103,0.0
53984.0,STARLINK-5142,PAYLOAD,2023-02-16 12:09:12,15.08883008,8.46e-05,53.2174,189.5059,67.8068,292.3014,0.00058456,9.039e-05,0.0,0 STARLINK-5142,1 53984U 22125W   23047.50639975  .00009039  00000-0  58456-3 0  9993,2 53984  53.2174 189.5059 0000846  67.8068 292.3014 15.08883008 20805,6917.749,95.435,540.199,539.029,0.0
53984.0,STARLINK-5142,PAYLOAD,2023-02-16 18:30:50,15.08821285,0.0001117,53.2173,188.3173,90.0985,270.0135,-0.00020286,-3.513e-05,0.0,0 STARLINK-5142,1 53984U 22125W   23047.77141323 -.00003513  00000-0 -20286-3 0  9990,2 53984  53.2173 188.3173 0001117  90.0985 270.0135 15.08821285 20914,6917.938,95.439,540.575,539.03,0.0
53984.0,STARLINK-5142,PAYLOAD,2023-02-17 08:49:15,15.08870125,9.82e-05,53.2163,185.6409,67.4309,292.6787,0.00040403,6.153e-05,0.0,0 STARLINK-5142,1 53984U 22125W   23048.36754104  .00006153  00000-0  40403-3 0  9997,2 53984  53.2163 185.6409 0000982  67.4309 292.6787 15.08870125 21003,6917.788,95.436,540.333,538.974,0.0
53984.0,STARLINK-5142,PAYLOAD,2023-02-17 12:00:03,15.08840279,0.000107,53.2171,185.0465,72.0381,288.0728,-6.5636e-05,-1.332e-05,0.0,0 STARLINK-5142,1 53984U 22125W   23048.50003961 -.00001332  00000-0 -65636-4 0  9993,2 53984  53.2171 185.0465 0001070  72.0381 288.0728 15.08840279 20953,6917.88,95.438,540.485,539.004,0.0
53984.0,STARLINK-5142,PAYLOAD,2023-02-17 18:21:33,15.08885265,5.58e-05,53.2177,183.8575,61.1667,298.9382,6.5646e-05,7.59e-06,0.0,0 STARLINK-5142,1 53984U 22125W   23048.76496665  .00000759  00000-0  65646-4 0  9999,2 53984  53.2177 183.8575 0000558  61.1667 298.9382 15.08885265 20997,6917.742,95.435,539.993,539.221,0.0
53984.0,STARLINK-5142,PAYLOAD,2023-02-18 15:01:37,15.08833179,0.0001499,53.217,179.9914,72.9905,287.1252,1.1301e-05,-1.08e-06,0.0,0 STARLINK-5142,1 53984U 22125W   23049.62612752 -.00000108  00000-0  11301-4 0  9990,2 53984  53.2170 179.9914 0001499  72.9905 287.1252 15.08833179 21122,6917.901,95.438,540.803,538.729,0.0
53984.0,STARLINK-5142,PAYLOAD,2023-02-18 19:47:46,15.08842486,0.0001364,53.2165,179.0988,60.5104,299.6024,7.9068e-05,9.71e-06,0.0,0 STARLINK-5142,1 53984U 22125W   23049.82483994  .00000971  00000-0  79068-4 0  9997,2 53984  53.2165 179.0988 0001364  60.5104 299.6024 15.08842486 21220,6917.873,95.437,540.681,538.794,0.0
53984.0,STARLINK-5142,PAYLOAD,2023-02-19 14:52:23,15.08854472,0.0001452,53.2157,175.5286,64.1559,295.9582,0.00012409,1.688e-05,0.0,0 STARLINK-5142,1 53984U 22125W   23050.61971158  .00001688  00000-0  12409-3 0  9991,2 53984  53.2157 175.5286 0001452  64.1559 295.9582 15.08854472 21276,6917.836,95.437,540.706,538.697,0.0
53984.0,STARLINK-5142,PAYLOAD,2023-02-19 18:03:08,15.08861647,0.0001533,53.216,174.9344,63.4621,296.6528,0.00019243,2.778e-05,0.0,0 STARLINK-5142,1 53984U 22125W   23050.75218474  .00002778  00000-0  19243-3 0  9995,2 53984  53.2160 174.9344 0001533  63.4621 296.6528 15.08861647 21360,6917.814,95.436,540.74,538.619,0.0
53984.0,STARLINK-5142,PAYLOAD,2023-02-20 11:32:25,15.08837916,0.0001357,53.2164,171.6641,73.9845,286.1297,0.000106,1.399e-05,0.0,0 STARLINK-5142,1 53984U 22125W   23051.48084577  .00001399  00000-0  10600-3 0  9997,2 53984  53.2164 171.6641 0001357  73.9845 286.1297 15.08837916 21477,6917.887,95.438,540.691,538.813,0.0
53984.0,STARLINK-5142,PAYLOAD,2023-02-20 14:43:10,15.08845013,0.0001405,53.2164,171.0695,73.6155,286.4992,0.00017574,2.51e-05,0.0,0 STARLINK-5142,1 53984U 22125W   23051.61332046  .00002510  00000-0  17574-3 0  9992,2 53984  53.2164 171.0695 0001405  73.6155 286.4992 15.08845013 21422,6917.865,95.437,540.702,538.758,0.0
53984.0,STARLINK-5142,PAYLOAD,2023-02-20 17:53:56,15.0885053,0.0001439,53.2158,170.4745,74.0752,286.0398,0.00022158,3.241e-05,0.0,0 STARLINK-5142,1 53984U 22125W   23051.74579756  .00003241  00000-0  22158-3 0  9993,2 53984  53.2158 170.4745 0001439  74.0752 286.0398 15.08850530 21515,6917.848,95.437,540.709,538.718,0.0
53984.0,STARLINK-5142,PAYLOAD,2023-02-21 11:23:11,15.08845123,0.0001769,53.2163,167.2042,69.0143,291.1038,3.8987e-05,3.33e-06,0.0,0 STARLINK-5142,1 53984U 22125W   23052.47444040  .00000333  00000-0  38987-4 0  9998,2 53984  53.2163 167.2042 0001769  69.0143 291.1038 15.08845123 21621,6917.865,95.437,540.954,538.506,0.0
53984.0,STARLINK-5142,PAYLOAD,2023-02-21 14:33:57,15.08857695,0.0001458,53.2161,166.6099,79.3627,280.7529,0.00023183,3.405e-05,0.0,0 STARLINK-5142,1 53984U 22125W   23052.60691133  .00003405  00000-0  23183-3 0  9994,2 53984  53.2161 166.6099 0001458  79.3627 280.7529 15.08857695 21570,6917.826,95.436,540.7,538.683,0.0
53984.0,STARLINK-5142,PAYLOAD,2023-02-21 19:20:06,15.08865485,0.0001412,53.2154,165.7157,81.5512,278.564,0.00045313,6.936e-05,0.0,0 STARLINK-5142,1 53984U 22125W   23052.80562896  .00006936  00000-0  45313-3 0  9990,2 53984  53.2154 165.7157 0001412  81.5512 278.5640 15.08865485 21604,6917.802,95.436,540.644,538.691,0.0
53984.0,STARLINK-5142,PAYLOAD,2023-02-22 00:06:16,15.08827798,0.0002612,53.2161,164.8215,84.9184,275.2107,-0.00017281,-3.037e-05,0.0,0 STARLINK-5142,1 53984U 22125W   23053.00436238 -.00003037  00000-0 -17281-3 0  9997,2 53984  53.2161 164.8215 0002612  84.9184 275.2107 15.08827798 21700,6917.918,95.438,541.59,537.976,0.0
53984.0,STARLINK-5142,PAYLOAD,2023-02-22 11:13:58,15.08845144,0.0001393,53.2166,162.7438,97.747,262.368,0.00018949,2.729e-05,0.0,0 STARLINK-5142,1 53984U 22125W   23053.46803477  .00002729  00000-0  18949-3 0  9997,2 53984  53.2166 162.7438 0001393  97.7470 262.3680 15.08845144 21779,6917.865,95.437,540.693,538.766,0.0
53984.0,STARLINK-5142,PAYLOAD,2023-02-22 12:49:21,15.08848487,0.000147,53.2167,162.4464,99.4734,260.6424,0.00031827,4.782e-05,0.0,0 STARLINK-5142,1 53984U 22125W   23053.53427383  .00004782  00000-0  31827-3 0  9994,2 53984  53.2167 162.4464 0001470  99.4734 260.6424 15.08848487 21718,6917.854,95.437,540.736,538.703,0.0
53984.0,STARLINK-5142,PAYLOAD,2023-02-22 17:35:30,15.08862741,0.000124,53.2158,161.5543,98.7531,261.3601,0.001905,0.00030179,0.0,0 STARLINK-5142,1 53984U 22125W   23053.73299232  .00030179  00000-0  19050-2 0  9998,2 53984  53.2158 161.5543 0001240  98.7531 261.3601 15.08862741 21813,6917.811,95.436,540.534,538.818,0.0
53984.0,STARLINK-5142,PAYLOAD,2023-02-22 19:10:53,15.08870778,0.0001226,53.2158,161.2563,100.6834,259.4296,0.0021663,0.00034386,0.0,0 STARLINK-5142,1 53984U 22125W   23053.79923082  .00034386  00000-0  21663-2 0  9998,2 53984  53.2158 161.2563 0001226 100.6834 259.4296 15.08870778 21755,6917.786,95.436,540.499,538.803,0.0
53984.0,STARLINK-5142,PAYLOAD,2023-02-22 23:57:03,15.08847352,5.61e-05,53.2161,160.3646,100.0299,260.0756,0.0005362,8.258e-05,0.0,0 STARLINK-5142,1 53984U 22125W   23053.99795157  .00008258  00000-0  53620-3 0  9998,2 53984  53.2161 160.3646 0000561 100.0299 260.0756 15.08847352 21853,6917.858,95.437,540.111,539.335,0.0
53984.0,STARLINK-5142,PAYLOAD,2023-02-23 11:04:45,15.08837539,0.0001113,53.2155,158.2829,89.7856,270.3263,0.00094447,0.00014774,0.0,0 STARLINK-5142,1 53984U 22125W   23054.46163844  .00014774  00000-0  94447-3 0  9995,2 53984  53.2155 158.2829 0001113  89.7856 270.3263 15.08837539 21922,6917.888,95.438,540.523,538.983,0.0
53984.0,STARLINK-5142,PAYLOAD,2023-02-23 12:40:08,15.08838171,0.0001106,53.2154,157.9861,87.3564,272.7554,0.0013246,0.00020855,0.0,0 STARLINK-5142,1 53984U 22125W   23054.52787953  .00020855  00000-0  13246-2 0  9999,2 53984  53.2154 157.9861 0001106  87.3564 272.7554 15.08838171 21860,6917.886,95.438,540.516,538.986,0.0
